{
  "norad_id": 37744,
  "name": "GLOBALSTAR M089",
  "history": [
    {
      "epoch": "2026-03-28T21:03:00.743616Z",
      "apogee_km": 1413.8812630263656,
      "perigee_km": 1413.3361524966504,
      "latitude_deg": 25.831385335936623,
      "longitude_deg": -85.59810703713441,
      "height_km": 1414.279017541924,
      "semi_major_axis_km": 7791.745707761508,
      "eccentricity": 3.498e-05,
      "inclination_deg": 51.9954,
      "raan_deg": 34.3347,
      "arg_perigee_deg": 34.9824,
      "mean_anomaly_deg": 358.4974,
      "mean_motion_rev_day": 12.62265192
    },
    {
      "epoch": "2026-03-29T05:12:46.116288Z",
      "apogee_km": 1413.8892805682217,
      "perigee_km": 1413.3282748722268,
      "latitude_deg": 30.698576406644168,
      "longitude_deg": -79.01322947150221,
      "height_km": 1415.3698814552597,
      "semi_major_axis_km": 7791.745777720224,
      "eccentricity": 3.6e-05,
      "inclination_deg": 51.9954,
      "raan_deg": 33.2992,
      "arg_perigee_deg": 35.7962,
      "mean_anomaly_deg": 103.9408,
      "mean_motion_rev_day": 12.62265175
    },
    {
      "epoch": "2026-03-30T03:22:56.847936Z",
      "apogee_km": 1413.9047940984028,
      "perigee_km": 1413.312621424614,
      "latitude_deg": 15.167310802661046,
      "longitude_deg": 164.3809671293917,
      "height_km": 1413.3230255861208,
      "semi_major_axis_km": 7791.745707761508,
      "eccentricity": 3.8e-05,
      "inclination_deg": 51.9955,
      "raan_deg": 30.4867,
      "arg_perigee_deg": 36.3483,
      "mean_anomaly_deg": 343.0268,
      "mean_motion_rev_day": 12.62265192
    },
    {
      "epoch": "2026-03-30T05:57:35.901216Z",
      "apogee_km": 1413.9088046524002,
      "perigee_km": 1413.3085285662455,
      "latitude_deg": 25.00608528640523,
      "longitude_deg": -88.14760409079665,
      "height_km": 1414.5486993374707,
      "semi_major_axis_km": 7791.745666609323,
      "eccentricity": 3.852e-05,
      "inclination_deg": 51.9954,
      "raan_deg": 30.1597,
      "arg_perigee_deg": 36.8214,
      "mean_anomaly_deg": 110.8173,
      "mean_motion_rev_day": 12.62265202
    },
    {
      "epoch": "2026-03-30T13:41:10.622112Z",
      "apogee_km": 1413.914496742118,
      "perigee_km": 1413.3028447069655,
      "latitude_deg": 6.852522667635001,
      "longitude_deg": 170.56356783980797,
      "height_km": 1413.8786898030444,
      "semi_major_axis_km": 7791.745670724542,
      "eccentricity": 3.925e-05,
      "inclination_deg": 51.9955,
      "raan_deg": 29.1795,
      "arg_perigee_deg": 36.8997,
      "mean_anomaly_deg": 134.3487,
      "mean_motion_rev_day": 12.62265201
    },
    {
      "epoch": "2026-03-30T20:34:00.840288Z",
      "apogee_km": 1413.919397585938,
      "perigee_km": 1413.2980837805762,
      "latitude_deg": 26.690942842722432,
      "longitude_deg": -85.42817338289365,
      "height_km": 1414.3610479392712,
      "semi_major_axis_km": 7791.745740683257,
      "eccentricity": 3.987e-05,
      "inclination_deg": 51.9955,
      "raan_deg": 28.3066,
      "arg_perigee_deg": 37.7363,
      "mean_anomaly_deg": 356.9201,
      "mean_motion_rev_day": 12.62265184
    },
    {
      "epoch": "2026-03-31T21:18:52.994304Z",
      "apogee_km": 1413.9403892050368,
      "perigee_km": 1413.2765324917718,
      "latitude_deg": 32.3826116134204,
      "longitude_deg": -94.26703362166097,
      "height_km": 1415.2683187049026,
      "semi_major_axis_km": 7791.745460848404,
      "eccentricity": 4.26e-05,
      "inclination_deg": 51.9955,
      "raan_deg": 25.167,
      "arg_perigee_deg": 39.8097,
      "mean_anomaly_deg": 2.8733,
      "mean_motion_rev_day": 12.62265252
    },
    {
      "epoch": "2026-04-01T13:12:00.646272Z",
      "apogee_km": 1413.9543073464438,
      "perigee_km": 1413.2624003590208,
      "latitude_deg": 6.341374914677469,
      "longitude_deg": 170.28043015637581,
      "height_km": 1413.9223809192674,
      "semi_major_axis_km": 7791.7453538527325,
      "eccentricity": 4.44e-05,
      "inclination_deg": 51.9956,
      "raan_deg": 23.1517,
      "arg_perigee_deg": 40.3575,
      "mean_anomaly_deg": 131.5381,
      "mean_motion_rev_day": 12.62265278
    }
  ]
}